STARLINK-1180           
1 45076U 20006AJ  21266.69191920  .00003465  00000-0  25142-3 0  9999
2 45076  53.0555  14.9878 0001143 110.5604 249.5508 15.06399988 91360
STARLINK-1182           
1 45077U 20006AK  21266.66648402 -.00000524  00000-0 -30584-5 0  9992
2 45077  53.0567   2.6369 0001135  81.5230 278.5902 15.39892180 91533
STARLINK-1177           
1 45078U 20006AL  21266.71032478  .00000451  00000-0  49173-4 0  9999
2 45078  53.0580  14.8938 0001141  90.3951 269.7169 15.06405139 91356
STARLINK-1149           
1 45079U 20006AM  21266.68823711 -.00000488  00000-0 -13868-4 0  9998
2 45079  53.0549  15.0151 0001355 109.7907 250.3228 15.06392305 91357
STARLINK-1153           
1 45080U 20006AN  21266.69560438  .00002078  00000-0  15837-3 0  9997
2 45080  53.0557  14.9721 0000979 108.1536 251.9559 15.06399861 91360
STARLINK-1151           
1 45081U 20006AP  21266.67347278  .00001947  00000-0  14955-3 0  9995
2 45081  53.0562  15.0751 0001199 102.9121 257.2002 15.06407501 91362
STARLINK-1160           
1 45082U 20006AQ  21266.72876469 -.00000097  00000-0  12361-4 0  9997
2 45082  53.0556  14.8312 0001496 102.4837 257.6319 15.06395850 91363
STARLINK-1190           
1 45083U 20006AR  21266.76009458  .00000317  00000-0  40184-4 0  9996
2 45083  53.0559  34.6852 0001116 103.7748 256.3365 15.06403297 91092
STARLINK-1173           
1 45084U 20006AS  21266.67531581  .00000240  00000-0  35026-4 0  9998
2 45084  53.0562 355.0609 0001215 106.1814 253.9309 15.06404697 91645
STARLINK-1179           
1 45085U 20006AT  21266.53893680  .00000030  00000-0  20874-4 0  9997
2 45085  53.0562 355.6665 0001061 111.0267 249.0836 15.06404607 91620
STARLINK-1181           
1 45086U 20006AU  21266.72219408  .00003500  00000-0  25058-3 0  9992
2 45086  53.0042 353.1423 0001173  98.4969 261.6153 15.06874362 91575
STARLINK-1185           
1 45087U 20006AV  21266.65689710  .00004531  00000-0  32270-3 0  9991
2 45087  53.0556 355.1381 0000790 127.6367 232.4694 15.06417282 91640
STARLINK-1183           
1 45088U 20006AW  21266.61265748 -.00000229  00000-0  35320-5 0  9991
2 45088  53.0563 355.3513 0001279  85.2724 274.8411 15.06400338 91637
STARLINK-1136           
1 45089U 20006AX  21266.61634797 -.00000524  00000-0 -16285-4 0  9993
2 45089  53.0566 355.3345 0001162 115.8689 244.2420 15.06397844 91644
STARLINK-1176           
1 45090U 20006AY  21266.66426793  .00002172  00000-0  16463-3 0  9991
2 45090  53.0562 355.1102 0001092 100.6690 259.4422 15.06403190 91649
STARLINK-1137           
1 45092U 20006BA  21266.57211571  .00001367  00000-0  11060-3 0  9992
2 45092  53.0565 355.5286 0000904  96.4216 263.6876 15.06401610 91621
STARLINK-1142           
1 45093U 20006BB  21266.63479163  .00001421  00000-0  11427-3 0  9991
2 45093  53.0561 355.2437 0001153 111.1172 248.9940 15.06393576 91636
STARLINK-1146           
1 45094U 20006BC  21266.51684058  .00001413  00000-0  11378-3 0  9996
2 45094  53.0556 355.7614 0001257  96.8869 263.2263 15.06393668 91629
STARLINK-1147           
1 45095U 20006BD  21266.71954797  .00001210  00000-0  10009-3 0  9994
2 45095  53.0560 354.8641 0000965 102.7096 257.4001 15.06397822 91653
STARLINK-1152           
1 45096U 20006BE  21266.51314070  .00001388  00000-0  11202-3 0  9999
2 45096  53.0562 355.7983 0001118 114.5789 245.5316 15.06401711 91612
STARLINK-1184           
1 45098U 20006BG  21266.76009361  .00000108  00000-0  26104-4 0  9999
2 45098  53.0555 354.6857 0000895  76.1749 283.9339 15.06397453 91656
STARLINK-1186           
1 45099U 20006BH  21266.66057049  .00002002  00000-0  15323-3 0  9990
2 45099  53.0553 355.1131 0000874 107.7774 252.3310 15.06408505 91641
STARLINK-1193           
1 45100U 20006BJ  21266.62371626 -.00000001  00000-0  18786-4 0  9994
2 45100  53.0547 355.2905 0001027  97.2796 262.8309 15.06399558 91635
STARLINK-1194           
1 45101U 20006BK  21266.62003864  .00001735  00000-0  13535-3 0  9991
2 45101  53.0556 355.3032 0001228  89.6571 270.4558 15.06400877 91635
STARLINK-1195           
1 45102U 20006BL  21266.77484910  .00002352  00000-0  17675-3 0  9998
2 45102  53.0563 354.6217 0001172 106.4167 253.6951 15.06402627 91655
STARLINK-1196           
1 45103U 20006BM  21266.53526260  .00001843  00000-0  14261-3 0  9990
2 45103  53.0557 355.7016 0001214  89.8823 270.2305 15.06396653 91624
ORBITAL FACTORY 2 (OF-2)
1 45113U 19071C   21266.76903621  .00007046  00000-0  20433-3 0  9995
2 45113  51.6411 280.5454 0011070 292.2045  67.7763 15.36608273 92283
AEROCUBE 14A            
1 45114U 19071D   21266.74743050  .00007355  00000-0  20916-3 0  9991
2 45114  51.6400 279.6257 0009858 296.3810  63.6161 15.37163897 92295
SWAMPSAT-2              
1 45115U 19071E   21267.07705579  .00258612  00000-0  18859-2 0  9999
2 45115  51.6284 239.4185 0004613  52.3028 307.8387 15.71935021 92843
AEROCUBE 14B            
1 45116U 19071F   21266.74244941  .00007596  00000-0  21573-3 0  9995
2 45116  51.6396 279.5959 0009460 298.0982  61.9045 15.37154771 92133
AEROCUBE 15B            
1 45117U 19071G   21267.10262393  .00008462  00000-0  23714-3 0  9990
2 45117  51.6401 276.7854 0009134 294.8713  65.1320 15.37415439 92355
AEROCUBE 15A            
1 45118U 19071H   21266.75963559  .00008199  00000-0  22960-3 0  9992
2 45118  51.6401 278.2367 0009432 292.1699  67.8284 15.37482030 92301
HUSKYSAT-1 (HO-107)     
1 45119U 19071J   21266.58547028  .00006746  00000-0  19642-3 0  9992
2 45119  51.6404 280.8116 0010457 287.6991  72.2850 15.36564426 92251
VPM                     
1 45120U 19071K   21266.73613800  .00012289  00000-0  31408-3 0  9996
2 45120  51.6399 274.4264 0008920 293.9806  66.0244 15.39816689 92247
CIRIS                   
1 45121U 19071L   21267.04646687  .00004150  00000-0  12127-3 0  9996
2 45121  51.6410 276.4586 0009859 288.2593  71.7317 15.37541050 92242
MAKERSAT 1              
1 45122U 19071M   21266.73711412  .00011193  00000-0  29503-3 0  9992
2 45122  51.6399 275.9067 0007788 260.5566  99.4538 15.38973732 92226
2019-071N               
1 45123U 19071N   21266.74515054  .00004615  00000-0  13922-3 0  9997
2 45123  51.6409 280.3879 0008783 257.9393 102.0606 15.36251013 91858
2019-071P               
1 45124U 19071P   21266.72350247  .00011774  00000-0  30937-3 0  9996
2 45124  51.6394 275.8261 0007782 261.1000  98.9104 15.39016868 92202
2019-071Q               
1 45125U 19071Q   21266.75058596  .00004116  00000-0  12669-3 0  9996
2 45125  51.6410 281.1550 0009022 256.4745 103.5233 15.35911672 92147
ORCA-8                  
1 45126U 19071R   21267.03994699  .00013858  00000-0  34256-3 0  9991
2 45126  51.6396 271.2579 0007784 267.1568  92.8526 15.40726219 92318
ONEWEB-0013             
1 45131U 20008A   21266.88608478  .00000728  00000-0  20798-2 0  9995
2 45131  87.9214  35.7649 0001701  77.8776 282.2541 13.09309416 80022
ONEWEB-0017             
1 45132U 20008B   21266.86962545 -.00000255  00000-0 -76599-3 0  9990
2 45132  87.8922  19.6488 0001928 113.0559 247.0772 13.10370675 81734
ONEWEB-0020             
1 45133U 20008C   21266.83848116  .00000565  00000-0  15834-2 0  9991
2 45133  87.8931  19.6433 0002737 102.0301 258.1133 13.10375746 82129
ONEWEB-0021             
1 45134U 20008D   21266.85405844  .00000375  00000-0  10390-2 0  9992
2 45134  87.9059  19.5233 0001627  95.8890 264.2423 13.10371010 82432
ONEWEB-0022             
1 45135U 20008E   21266.87896664 -.00000651  00000-0 -19025-2 0  9992
2 45135  87.8930  19.6329 0002227 108.9095 251.2274 13.10370969 82136
ONEWEB-0023             
1 45136U 20008F   21266.86652280 -.00000190  00000-0 -58080-3 0  9999
2 45136  87.8959  19.5557 0001814  75.3764 284.7564 13.10365046 81863
ONEWEB-0024             
1 45137U 20008G   21266.83690168  .00000560  00000-0  15679-2 0  9999
2 45137  87.8874  19.5917 0001248  88.9766 271.1505 13.10375288 82026
ONEWEB-0025             
1 45138U 20008H   21266.85560330  .00000330  00000-0  90790-3 0  9992
2 45138  87.8916  19.6980 0001724  92.3164 267.8161 13.10370511 82355
ONEWEB-0026             
1 45139U 20008J   21267.02909329 -.00114206  00000-0 -32749+0 0  9994
2 45139  87.8913   4.4545 0001916 108.4783 251.6553 13.11160067 85646
ONEWEB-0028             
1 45140U 20008K   21266.81057766  .00000375  00000-0  10506-2 0  9990
2 45140  87.2041  12.3365 0001376  94.1931 265.9353 13.09346172 82258
ONEWEB-0032             
1 45141U 20008L   21266.87117190 -.00000372  00000-0 -11017-2 0  9992
2 45141  87.8897  19.6792 0001568 104.4310 255.6991 13.10370105 82087
ONEWEB-0033             
1 45142U 20008M   21266.84471323  .00000633  00000-0  17772-2 0  9993
2 45142  87.8901  19.6218 0001699 105.3265 254.8051 13.10372200 81996
ONEWEB-0035             
1 45143U 20008N   21266.87741683 -.00000608  00000-0 -17777-2 0  9995
2 45143  87.8926  19.6586 0002014  97.3555 262.7801 13.10371559 82613
ONEWEB-0036             
1 45144U 20008P   21266.86806166 -.00000250  00000-0 -75362-3 0  9991
2 45144  87.8922  19.6196 0001820  89.6103 270.5233 13.10370120 82152
ONEWEB-0038             
1 45145U 20008Q   21266.79814947  .00000514  00000-0  14144-2 0  9991
2 45145  87.8983   4.4443 0001685  93.3646 266.7674 13.11418387 83921
ONEWEB-0039             
1 45146U 20008R   21267.07844804  .00000720  00000-0  20258-2 0  9991
2 45146  87.8922  19.6168 0001034  93.2612 266.8633 13.10372608 82757
ONEWEB-0040             
1 45147U 20008S   21266.84157559  .00000725  00000-0  20394-2 0  9996
2 45147  87.8927  19.7100 0001017 102.8721 257.2520 13.10375437 81648
ONEWEB-0041             
1 45148U 20008T   21266.82807827  .00000053  00000-0  63279-4 0  9990
2 45148  87.9420   2.7010 0019039 136.5881 223.6772 13.48328749 85267
ONEWEB-0043             
1 45149U 20008U   21266.84315387  .00000638  00000-0  17918-2 0  9994
2 45149  87.8927  19.6609 0001602  84.1525 275.9784 13.10377016 81966
